<?xml version="1.0" encoding="UTF-8"?>
<ndm xmlns:xsi="http://www.w3.org/2001/XMLSchema-instance" xsi:noNamespaceSchemaLocation="https://sanaregistry.org/r/ndmxml_unqualified/ndmxml-2.0.0-master-2.0.xsd">
<omm id="CCSDS_OMM_VERS" version="2.0">
<header><CREATION_DATE/><ORIGINATOR/></header><body><segment><metadata><OBJECT_NAME>ORBCOMM FM20</OBJECT_NAME><OBJECT_ID>1998-046D</OBJECT_ID><CENTER_NAME>EARTH</CENTER_NAME><REF_FRAME>TEME</REF_FRAME><TIME_SYSTEM>UTC</TIME_SYSTEM><MEAN_ELEMENT_THEORY>SGP4</MEAN_ELEMENT_THEORY></metadata><data><meanElements><EPOCH>2025-07-24T20:42:03.460320</EPOCH><MEAN_MOTION>14.37265761</MEAN_MOTION><ECCENTRICITY>.0001647</ECCENTRICITY><INCLINATION>44.9955</INCLINATION><RA_OF_ASC_NODE>2.8421</RA_OF_ASC_NODE><ARG_OF_PERICENTER>151.6607</ARG_OF_PERICENTER><MEAN_ANOMALY>208.4330</MEAN_ANOMALY></meanElements><tleParameters><EPHEMERIS_TYPE>0</EPHEMERIS_TYPE><CLASSIFICATION_TYPE>U</CLASSIFICATION_TYPE><NORAD_CAT_ID>25416</NORAD_CAT_ID><ELEMENT_SET_NO>999</ELEMENT_SET_NO><REV_AT_EPOCH>40968</REV_AT_EPOCH><BSTAR>.32943E-3</BSTAR><MEAN_MOTION_DOT>.849E-5</MEAN_MOTION_DOT><MEAN_MOTION_DDOT>0</MEAN_MOTION_DDOT></tleParameters></data></segment></body></omm>
<omm id="CCSDS_OMM_VERS" version="2.0">
<header><CREATION_DATE/><ORIGINATOR/></header><body><segment><metadata><OBJECT_NAME>ORBCOMM FM16</OBJECT_NAME><OBJECT_ID>1998-046E</OBJECT_ID><CENTER_NAME>EARTH</CENTER_NAME><REF_FRAME>TEME</REF_FRAME><TIME_SYSTEM>UTC</TIME_SYSTEM><MEAN_ELEMENT_THEORY>SGP4</MEAN_ELEMENT_THEORY></metadata><data><meanElements><EPOCH>2025-07-24T22:51:37.161216</EPOCH><MEAN_MOTION>14.38986548</MEAN_MOTION><ECCENTRICITY>.0005379</ECCENTRICITY><INCLINATION>44.9950</INCLINATION><RA_OF_ASC_NODE>353.4888</RA_OF_ASC_NODE><ARG_OF_PERICENTER>140.9903</ARG_OF_PERICENTER><MEAN_ANOMALY>219.1334</MEAN_ANOMALY></meanElements><tleParameters><EPHEMERIS_TYPE>0</EPHEMERIS_TYPE><CLASSIFICATION_TYPE>U</CLASSIFICATION_TYPE><NORAD_CAT_ID>25417</NORAD_CAT_ID><ELEMENT_SET_NO>999</ELEMENT_SET_NO><REV_AT_EPOCH>40969</REV_AT_EPOCH><BSTAR>.38328E-3</BSTAR><MEAN_MOTION_DOT>.1051E-4</MEAN_MOTION_DOT><MEAN_MOTION_DDOT>0</MEAN_MOTION_DDOT></tleParameters></data></segment></body></omm>
<omm id="CCSDS_OMM_VERS" version="2.0">
<header><CREATION_DATE/><ORIGINATOR/></header><body><segment><metadata><OBJECT_NAME>ORBCOMM FM15</OBJECT_NAME><OBJECT_ID>1998-046F</OBJECT_ID><CENTER_NAME>EARTH</CENTER_NAME><REF_FRAME>TEME</REF_FRAME><TIME_SYSTEM>UTC</TIME_SYSTEM><MEAN_ELEMENT_THEORY>SGP4</MEAN_ELEMENT_THEORY></metadata><data><meanElements><EPOCH>2025-07-24T19:10:46.605792</EPOCH><MEAN_MOTION>14.38627671</MEAN_MOTION><ECCENTRICITY>.0004989</ECCENTRICITY><INCLINATION>44.9982</INCLINATION><RA_OF_ASC_NODE>359.4747</RA_OF_ASC_NODE><ARG_OF_PERICENTER>139.5955</ARG_OF_PERICENTER><MEAN_ANOMALY>220.5264</MEAN_ANOMALY></meanElements><tleParameters><EPHEMERIS_TYPE>0</EPHEMERIS_TYPE><CLASSIFICATION_TYPE>U</CLASSIFICATION_TYPE><NORAD_CAT_ID>25418</NORAD_CAT_ID><ELEMENT_SET_NO>999</ELEMENT_SET_NO><REV_AT_EPOCH>40966</REV_AT_EPOCH><BSTAR>.36014E-3</BSTAR><MEAN_MOTION_DOT>.971E-5</MEAN_MOTION_DOT><MEAN_MOTION_DDOT>0</MEAN_MOTION_DDOT></tleParameters></data></segment></body></omm>
<omm id="CCSDS_OMM_VERS" version="2.0">
<header><CREATION_DATE/><ORIGINATOR/></header><body><segment><metadata><OBJECT_NAME>ORBCOMM FM14</OBJECT_NAME><OBJECT_ID>1998-046G</OBJECT_ID><CENTER_NAME>EARTH</CENTER_NAME><REF_FRAME>TEME</REF_FRAME><TIME_SYSTEM>UTC</TIME_SYSTEM><MEAN_ELEMENT_THEORY>SGP4</MEAN_ELEMENT_THEORY></metadata><data><meanElements><EPOCH>2025-07-24T19:22:43.973760</EPOCH><MEAN_MOTION>14.38990972</MEAN_MOTION><ECCENTRICITY>.0003791</ECCENTRICITY><INCLINATION>44.9970</INCLINATION><RA_OF_ASC_NODE>357.5639</RA_OF_ASC_NODE><ARG_OF_PERICENTER>139.6473</ARG_OF_PERICENTER><MEAN_ANOMALY>220.4657</MEAN_ANOMALY></meanElements><tleParameters><EPHEMERIS_TYPE>0</EPHEMERIS_TYPE><CLASSIFICATION_TYPE>U</CLASSIFICATION_TYPE><NORAD_CAT_ID>25419</NORAD_CAT_ID><ELEMENT_SET_NO>999</ELEMENT_SET_NO><REV_AT_EPOCH>40985</REV_AT_EPOCH><BSTAR>.3554E-3</BSTAR><MEAN_MOTION_DOT>.964E-5</MEAN_MOTION_DOT><MEAN_MOTION_DDOT>0</MEAN_MOTION_DDOT></tleParameters></data></segment></body></omm>
<omm id="CCSDS_OMM_VERS" version="2.0">
<header><CREATION_DATE/><ORIGINATOR/></header><body><segment><metadata><OBJECT_NAME>ORBCOMM FM13</OBJECT_NAME><OBJECT_ID>1998-046H</OBJECT_ID><CENTER_NAME>EARTH</CENTER_NAME><REF_FRAME>TEME</REF_FRAME><TIME_SYSTEM>UTC</TIME_SYSTEM><MEAN_ELEMENT_THEORY>SGP4</MEAN_ELEMENT_THEORY></metadata><data><meanElements><EPOCH>2025-07-25T03:54:29.513376</EPOCH><MEAN_MOTION>14.37735525</MEAN_MOTION><ECCENTRICITY>.0005562</ECCENTRICITY><INCLINATION>44.9988</INCLINATION><RA_OF_ASC_NODE>4.2236</RA_OF_ASC_NODE><ARG_OF_PERICENTER>119.1584</ARG_OF_PERICENTER><MEAN_ANOMALY>240.9821</MEAN_ANOMALY></meanElements><tleParameters><EPHEMERIS_TYPE>0</EPHEMERIS_TYPE><CLASSIFICATION_TYPE>U</CLASSIFICATION_TYPE><NORAD_CAT_ID>25420</NORAD_CAT_ID><ELEMENT_SET_NO>999</ELEMENT_SET_NO><REV_AT_EPOCH>40983</REV_AT_EPOCH><BSTAR>.33564E-3</BSTAR><MEAN_MOTION_DOT>.877E-5</MEAN_MOTION_DOT><MEAN_MOTION_DDOT>0</MEAN_MOTION_DDOT></tleParameters></data></segment></body></omm>
<omm id="CCSDS_OMM_VERS" version="2.0">
<header><CREATION_DATE/><ORIGINATOR/></header><body><segment><metadata><OBJECT_NAME>ORBCOMM FM21</OBJECT_NAME><OBJECT_ID>1998-053A</OBJECT_ID><CENTER_NAME>EARTH</CENTER_NAME><REF_FRAME>TEME</REF_FRAME><TIME_SYSTEM>UTC</TIME_SYSTEM><MEAN_ELEMENT_THEORY>SGP4</MEAN_ELEMENT_THEORY></metadata><data><meanElements><EPOCH>2025-07-25T02:35:58.996608</EPOCH><MEAN_MOTION>14.37405368</MEAN_MOTION><ECCENTRICITY>.0002264</ECCENTRICITY><INCLINATION>45.0085</INCLINATION><RA_OF_ASC_NODE>89.9046</RA_OF_ASC_NODE><ARG_OF_PERICENTER>34.4277</ARG_OF_PERICENTER><MEAN_ANOMALY>325.6717</MEAN_ANOMALY></meanElements><tleParameters><EPHEMERIS_TYPE>0</EPHEMERIS_TYPE><CLASSIFICATION_TYPE>U</CLASSIFICATION_TYPE><NORAD_CAT_ID>25475</NORAD_CAT_ID><ELEMENT_SET_NO>999</ELEMENT_SET_NO><REV_AT_EPOCH>40303</REV_AT_EPOCH><BSTAR>.27946E-3</BSTAR><MEAN_MOTION_DOT>.701E-5</MEAN_MOTION_DOT><MEAN_MOTION_DDOT>0</MEAN_MOTION_DDOT></tleParameters></data></segment></body></omm>
<omm id="CCSDS_OMM_VERS" version="2.0">
<header><CREATION_DATE/><ORIGINATOR/></header><body><segment><metadata><OBJECT_NAME>ORBCOMM FM22</OBJECT_NAME><OBJECT_ID>1998-053B</OBJECT_ID><CENTER_NAME>EARTH</CENTER_NAME><REF_FRAME>TEME</REF_FRAME><TIME_SYSTEM>UTC</TIME_SYSTEM><MEAN_ELEMENT_THEORY>SGP4</MEAN_ELEMENT_THEORY></metadata><data><meanElements><EPOCH>2025-07-25T01:09:31.559616</EPOCH><MEAN_MOTION>14.38456695</MEAN_MOTION><ECCENTRICITY>.0004027</ECCENTRICITY><INCLINATION>45.0080</INCLINATION><RA_OF_ASC_NODE>84.7351</RA_OF_ASC_NODE><ARG_OF_PERICENTER>46.4848</ARG_OF_PERICENTER><MEAN_ANOMALY>313.6335</MEAN_ANOMALY></meanElements><tleParameters><EPHEMERIS_TYPE>0</EPHEMERIS_TYPE><CLASSIFICATION_TYPE>U</CLASSIFICATION_TYPE><NORAD_CAT_ID>25476</NORAD_CAT_ID><ELEMENT_SET_NO>999</ELEMENT_SET_NO><REV_AT_EPOCH>40308</REV_AT_EPOCH><BSTAR>.34357E-3</BSTAR><MEAN_MOTION_DOT>.916E-5</MEAN_MOTION_DOT><MEAN_MOTION_DDOT>0</MEAN_MOTION_DDOT></tleParameters></data></segment></body></omm>
<omm id="CCSDS_OMM_VERS" version="2.0">
<header><CREATION_DATE/><ORIGINATOR/></header><body><segment><metadata><OBJECT_NAME>ORBCOMM FM23</OBJECT_NAME><OBJECT_ID>1998-053C</OBJECT_ID><CENTER_NAME>EARTH</CENTER_NAME><REF_FRAME>TEME</REF_FRAME><TIME_SYSTEM>UTC</TIME_SYSTEM><MEAN_ELEMENT_THEORY>SGP4</MEAN_ELEMENT_THEORY></metadata><data><meanElements><EPOCH>2025-07-25T02:30:03.036384</EPOCH><MEAN_MOTION>14.37592511</MEAN_MOTION><ECCENTRICITY>.0003277</ECCENTRICITY><INCLINATION>45.0085</INCLINATION><RA_OF_ASC_NODE>91.9938</RA_OF_ASC_NODE><ARG_OF_PERICENTER>36.6173</ARG_OF_PERICENTER><MEAN_ANOMALY>323.4898</MEAN_ANOMALY></meanElements><tleParameters><EPHEMERIS_TYPE>0</EPHEMERIS_TYPE><CLASSIFICATION_TYPE>U</CLASSIFICATION_TYPE><NORAD_CAT_ID>25477</NORAD_CAT_ID><ELEMENT_SET_NO>999</ELEMENT_SET_NO><REV_AT_EPOCH>40316</REV_AT_EPOCH><BSTAR>.3496E-3</BSTAR><MEAN_MOTION_DOT>.916E-5</MEAN_MOTION_DOT><MEAN_MOTION_DDOT>0</MEAN_MOTION_DDOT></tleParameters></data></segment></body></omm>

</ndm>
