ORBCOMM FM20            
1 25416U 98046D   25205.86254005  .00000849  00000+0  32943-3 0  9993
2 25416  44.9955   2.8421 0001647 151.6607 208.4330 14.37265761409686
ORBCOMM FM16            
1 25417U 98046E   25205.95251344  .00001051  00000+0  38328-3 0  9996
2 25417  44.9950 353.4888 0005379 140.9903 219.1334 14.38986548409698
ORBCOMM FM15            
1 25418U 98046F   25205.79915053  .00000971  00000+0  36014-3 0  9993
2 25418  44.9982 359.4747 0004989 139.5955 220.5264 14.38627671409665
ORBCOMM FM14            
1 25419U 98046G   25205.80745340  .00000964  00000+0  35540-3 0  9991
2 25419  44.9970 357.5639 0003791 139.6473 220.4657 14.38990972409851
ORBCOMM FM13            
1 25420U 98046H   25206.16284159  .00000877  00000+0  33564-3 0  9996
2 25420  44.9988   4.2236 0005562 119.1584 240.9821 14.37735525409833
ORBCOMM FM21            
1 25475U 98053A   25206.10832172  .00000701  00000+0  27946-3 0  9995
2 25475  45.0085  89.9046 0002264  34.4277 325.6717 14.37405368403036
ORBCOMM FM22            
1 25476U 98053B   25206.04828194  .00000916  00000+0  34357-3 0  9990
2 25476  45.0080  84.7351 0004027  46.4848 313.6335 14.38456695403088
ORBCOMM FM23            
1 25477U 98053C   25206.10420181  .00000916  00000+0  34960-3 0  9992
2 25477  45.0085  91.9938 0003277  36.6173 323.4898 14.37592511403162
